#aV2021  3 11  0  0  0.00000000     288 DD+AD WGS84 FIT  NGA
## 2148 345600.00000000   300.00000000 59284 0.0000000000000
+   32     1  2  3  4  5  6  7  8  9 10 11 12 13 14 15 16 17
+         18 19 20 21 22 23 24 25 26 27 28 29 30 31 32  0  0
+          0  0  0  0  0  0  0  0  0  0  0  0  0  0  0  0  0
+          0  0  0  0  0  0  0  0  0  0  0  0  0  0  0  0  0
+          0  0  0  0  0  0  0  0  0  0  0  0  0  0  0  0  0
++         2  2  2  2  2  2  2  2  2  2  2  2  2  2  2  2  2
++         2  2  2  2  2  2  2  2  2  2  2  2  2  2  2  0  0
++         0  0  0  0  0  0  0  0  0  0  0  0  0  0  0  0  0
++         0  0  0  0  0  0  0  0  0  0  0  0  0  0  0  0  0
++         0  0  0  0  0  0  0  0  0  0  0  0  0  0  0  0  0
%c cc cc ccc ccc cccc cccc cccc cccc ccccc ccccc ccccc ccccc
%c cc cc ccc ccc cccc cccc cccc cccc ccccc ccccc ccccc ccccc
%f  0.0000000  0.000000000  0.00000000000  0.000000000000000
%f  0.0000000  0.000000000  0.00000000000  0.000000000000000
%i    0    0    0    0      0      0      0      0         0
%i    0    0    0    0      0      0      0      0         0
/*      NGA, ST. LOUIS,MO.                                  
/*   EPHEMERIS COMPUTED FROM 2 DAYS OF DATA                 
/*   EPOCHA v5 SMOOTHER                                     
/*   G2139 IERS2010 SATAF SATAPC                            
*  2021  3 11  3 35  0.00000000
P  1  13653.571666  13492.394212 -18752.357585    743.981092                    
V  1 -23126.047664   -766.799470 -17287.299803     -0.086172                    
P  2  11553.366263 -14073.224617  20008.304089   -584.921520                    
V  2  23984.211299    768.740203 -13734.891067     -0.037426                    
P  3  13085.576519  23075.402135   2121.787611   -104.728602                    
V  3   -988.627768   3593.836160 -31701.926246     -0.105035                    
P  4   4361.270415  17424.064079  19554.699451   -185.437030                    
V  4 -15444.255072  19489.133160 -13976.587770     -0.023192                    
P  5   -960.129081 -22421.300754  13914.605185    -35.884423                    
V  5  10742.753154  14658.994655  24281.476755     -0.010517                    
P  6  22933.807250  -6473.764601  11854.626028      0.276602                    
V  6  14759.073243   2663.256019 -27188.935149      0.018327                    
P  7  24579.864997   7469.292219   8017.034973     85.916646                    
V  7  -9753.766163   1742.346263  29047.638122      0.125608                    
P  8  -1644.482969  21714.678645 -14989.658343    -13.262833                    
V  8 -12062.109118  15009.887915  23360.426065     -0.014164                    
P  9  13770.613925   6889.075943  21581.898492   -330.024053                    
V  9 -14706.867760  23321.924338   1911.302297     -0.032322                    
P 10 -16136.305386     77.379580 -21032.038441    -78.459104                    
V 10 -11504.860851 -24312.423383   8430.606130     -0.079657                    
P 11   6619.862668  15034.067242 -21324.519684     -2.263682                    
V 11 -23875.423034  10897.885735    -93.914499      0.106444                    
P 12  -9080.333235 -25013.751506  -1626.225304    -12.236076                    
V 12   2738.542388    765.177994 -31862.238141     -0.053033                    
P 13  11694.404043 -22275.158494  -8448.396164    106.418522                    
V 13   8786.486966  -6364.312432  29530.616535      0.044462                    
P 14  16594.130816   1548.166079 -20695.294114     99.836071                    
V 14   9796.301610  24379.180941   9669.929318      0.002631                    
P 15  -1563.130848 -21829.054989 -15155.954824   -163.959044                    
V 15  11090.303277 -15512.997307  22070.922826      0.025776                    
P 16  -3251.118224  20846.827283  15597.037860   -292.178670                    
V 16  -9293.928422 -18280.511671  22607.402780     -0.057800                    
P 17  19598.650681 -10078.079397 -14393.141195    407.658485                    
V 17 -10043.512036  16202.850851 -24304.450518      0.063845                    
P 18 -25690.103826  -5236.596833   4437.468797    350.183945                    
V 18   5819.853113  -2041.194756  31190.420627      0.010084                    
P 19  19947.973735 -15596.312213  -8133.611839    -27.949056                    
V 19  -4770.024563   8958.343035 -30012.275320      0.050063                    
P 20 -19984.402964 -10869.037542 -13979.972061    524.305722                    
V 20  -7946.468496 -15925.338330  23553.755667     -0.001863                    
P 21   5745.602763  14597.546279 -20768.837934    102.155869                    
V 21 -28017.791123    806.661148  -6506.197168      0.030465                    
P 22   9061.016141  24061.864941  -6816.253640   -663.001035                    
V 22  -7572.575494  -5772.759236 -29405.652519      0.079949                    
P 23 -18293.264167 -11007.663875 -15846.952099    117.773872                    
V 23  -7746.613135 -18599.588830  21848.464375     -0.007571                    
P 24  -8362.751213 -15088.512245 -20523.478590      1.236134                    
V 24  25522.374675  -1034.286673  -9362.057877     -0.005523                    
P 25 -16960.788408 -17558.101752  10535.435124     96.445341                    
V 25  -4034.484290 -13262.858497 -27636.070124      0.074938                    
P 26  -9923.373418  13179.298665  20713.501931     56.355533                    
V 26 -13677.943015 -22771.913760   8180.513733      0.053684                    
P 27 -11667.108176  23218.475381  -4596.595853    -91.700797                    
V 27  -5264.543410   3328.075897  31637.207091     -0.071829                    
P 28  15112.744830   -954.999182 -21242.546784    603.938240                    
V 28   9632.779474  26607.933574   5697.193885     -0.056058                    
P 29 -12914.006863  -7196.367715  22024.491026   -309.641553                    
V 29  16995.449211 -22248.449838   2651.384512     -0.068988                    
P 30  26289.160175   -917.886610  -4428.117017   -396.653456                    
V 30   5348.552857   3797.408964  30400.549874     -0.055504                    
P 31 -21589.611942   7794.576413  13673.416097   -104.866537                    
V 31 -17085.422814  -3519.603971 -24364.593706     -0.022639                    
P 32 -19252.281134  11913.742588 -13646.963923     20.928389                    
V 32   7590.173382 -16031.595991 -24687.901834      0.007692                    
EOF
